[{"OBJECT_NAME":"SL-8 R/B","OBJECT_ID":"1988-053B","EPOCH":"2026-04-09T14:47:38.020128","MEAN_MOTION":14.38936644,"ECCENTRICITY":0.002121,"INCLINATION":74.0477,"RA_OF_ASC_NODE":55.4543,"ARG_OF_PERICENTER":230.4248,"MEAN_ANOMALY":302.5131,"EPHEMERIS_TYPE":0,"CLASSIFICATION_TYPE":"U","NORAD_CAT_ID":19257,"ELEMENT_SET_NO":999,"REV_AT_EPOCH":98104,"BSTAR":8.1069e-5,"MEAN_MOTION_DOT":2.24e-6,"MEAN_MOTION_DDOT":0},{"OBJECT_NAME":"COSMOS 1975","OBJECT_ID":"1988-093A","EPOCH":"2026-04-09T21:22:46.777152","MEAN_MOTION":15.2851372,"ECCENTRICITY":0.0013153,"INCLINATION":82.5171,"RA_OF_ASC_NODE":86.3453,"ARG_OF_PERICENTER":66.0428,"MEAN_ANOMALY":294.2187,"EPHEMERIS_TYPE":0,"CLASSIFICATION_TYPE":"U","NORAD_CAT_ID":19573,"ELEMENT_SET_NO":999,"REV_AT_EPOCH":2417,"BSTAR":0.00018809,"MEAN_MOTION_DOT":5.263e-5,"MEAN_MOTION_DDOT":0},{"OBJECT_NAME":"SL-14 R/B","OBJECT_ID":"1988-093B","EPOCH":"2026-04-09T20:19:01.025760","MEAN_MOTION":14.85694846,"ECCENTRICITY":0.0019263,"INCLINATION":82.5345,"RA_OF_ASC_NODE":12.803,"ARG_OF_PERICENTER":297.2923,"MEAN_ANOMALY":127.682,"EPHEMERIS_TYPE":0,"CLASSIFICATION_TYPE":"U","NORAD_CAT_ID":19574,"ELEMENT_SET_NO":999,"REV_AT_EPOCH":564,"BSTAR":4.9592e-5,"MEAN_MOTION_DOT":4.55e-6,"MEAN_MOTION_DDOT":0},{"OBJECT_NAME":"SL-16 R/B","OBJECT_ID":"1988-102B","EPOCH":"2026-04-09T10:03:34.750944","MEAN_MOTION":14.16158654,"ECCENTRICITY":0.00157016,"INCLINATION":70.9978,"RA_OF_ASC_NODE":86.8361,"ARG_OF_PERICENTER":317.1085,"MEAN_ANOMALY":42.8812,"EPHEMERIS_TYPE":0,"CLASSIFICATION_TYPE":"U","NORAD_CAT_ID":19650,"ELEMENT_SET_NO":999,"REV_AT_EPOCH":93124,"BSTAR":0.00015189588,"MEAN_MOTION_DOT":2.53e-6,"MEAN_MOTION_DDOT":0},{"OBJECT_NAME":"INTERCOSMOS 24","OBJECT_ID":"1989-080A","EPOCH":"2026-04-09T11:08:06.962208","MEAN_MOTION":12.59594163,"ECCENTRICITY":0.1187123,"INCLINATION":82.6016,"RA_OF_ASC_NODE":84.3583,"ARG_OF_PERICENTER":221.3367,"MEAN_ANOMALY":129.1753,"EPHEMERIS_TYPE":0,"CLASSIFICATION_TYPE":"U","NORAD_CAT_ID":20261,"ELEMENT_SET_NO":999,"REV_AT_EPOCH":67067,"BSTAR":8.9997e-5,"MEAN_MOTION_DOT":3.12e-6,"MEAN_MOTION_DDOT":0},{"OBJECT_NAME":"SL-14 R/B","OBJECT_ID":"1989-080C","EPOCH":"2026-04-09T12:31:59.160864","MEAN_MOTION":12.50522203,"ECCENTRICITY":0.123094,"INCLINATION":82.5936,"RA_OF_ASC_NODE":153.4014,"ARG_OF_PERICENTER":114.3114,"MEAN_ANOMALY":259.1386,"EPHEMERIS_TYPE":0,"CLASSIFICATION_TYPE":"U","NORAD_CAT_ID":20262,"ELEMENT_SET_NO":999,"REV_AT_EPOCH":66400,"BSTAR":8.2875e-5,"MEAN_MOTION_DOT":3.08e-6,"MEAN_MOTION_DDOT":0},{"OBJECT_NAME":"DELTA 1 R/B","OBJECT_ID":"1989-089B","EPOCH":"2026-04-09T12:31:08.279040","MEAN_MOTION":14.50689977,"ECCENTRICITY":0.0069754,"INCLINATION":97.0682,"RA_OF_ASC_NODE":302.0505,"ARG_OF_PERICENTER":26.2659,"MEAN_ANOMALY":334.205,"EPHEMERIS_TYPE":0,"CLASSIFICATION_TYPE":"U","NORAD_CAT_ID":20323,"ELEMENT_SET_NO":999,"REV_AT_EPOCH":90020,"BSTAR":8.5895e-5,"MEAN_MOTION_DOT":3.13e-6,"MEAN_MOTION_DDOT":0},{"OBJECT_NAME":"ARIANE 40 R/B","OBJECT_ID":"1990-005H","EPOCH":"2026-04-09T09:20:43.952640","MEAN_MOTION":14.39892322,"ECCENTRICITY":0.00113699,"INCLINATION":98.3023,"RA_OF_ASC_NODE":159.1264,"ARG_OF_PERICENTER":111.0995,"MEAN_ANOMALY":249.141,"EPHEMERIS_TYPE":0,"CLASSIFICATION_TYPE":"U","NORAD_CAT_ID":20443,"ELEMENT_SET_NO":999,"REV_AT_EPOCH":89722,"BSTAR":9.6038234e-5,"MEAN_MOTION_DOT":2.6e-6,"MEAN_MOTION_DDOT":0},{"OBJECT_NAME":"DELTA 2 R/B(1)","OBJECT_ID":"1990-008B","EPOCH":"2026-04-09T00:05:41.525376","MEAN_MOTION":15.60285686,"ECCENTRICITY":0.00761444,"INCLINATION":35.604,"RA_OF_ASC_NODE":335.2939,"ARG_OF_PERICENTER":184.3872,"MEAN_ANOMALY":175.6203,"EPHEMERIS_TYPE":0,"CLASSIFICATION_TYPE":"U","NORAD_CAT_ID":20453,"ELEMENT_SET_NO":999,"REV_AT_EPOCH":93086,"BSTAR":0.0005782908,"MEAN_MOTION_DOT":0.00056721,"MEAN_MOTION_DDOT":0},{"OBJECT_NAME":"COSMOS 2058","OBJECT_ID":"1990-010A","EPOCH":"2026-04-09T19:54:35.678304","MEAN_MOTION":15.11633644,"ECCENTRICITY":0.0008648,"INCLINATION":82.4724,"RA_OF_ASC_NODE":16.7477,"ARG_OF_PERICENTER":219.3951,"MEAN_ANOMALY":140.6651,"EPHEMERIS_TYPE":0,"CLASSIFICATION_TYPE":"U","NORAD_CAT_ID":20465,"ELEMENT_SET_NO":999,"REV_AT_EPOCH":94694,"BSTAR":0.00020395,"MEAN_MOTION_DOT":3.496e-5,"MEAN_MOTION_DDOT":0},{"OBJECT_NAME":"SL-14 R/B","OBJECT_ID":"1990-010B","EPOCH":"2026-04-09T18:42:29.676096","MEAN_MOTION":14.83601978,"ECCENTRICITY":0.0019462,"INCLINATION":82.5017,"RA_OF_ASC_NODE":238.1791,"ARG_OF_PERICENTER":193.3119,"MEAN_ANOMALY":166.7585,"EPHEMERIS_TYPE":0,"CLASSIFICATION_TYPE":"U","NORAD_CAT_ID":20466,"ELEMENT_SET_NO":999,"REV_AT_EPOCH":93309,"BSTAR":6.0199e-5,"MEAN_MOTION_DOT":5.21e-6,"MEAN_MOTION_DDOT":0},{"OBJECT_NAME":"SL-14 R/B","OBJECT_ID":"1990-018B","EPOCH":"2026-04-09T18:13:50.861280","MEAN_MOTION":14.82177162,"ECCENTRICITY":0.0015962,"INCLINATION":82.5244,"RA_OF_ASC_NODE":194.0576,"ARG_OF_PERICENTER":354.9917,"MEAN_ANOMALY":5.1134,"EPHEMERIS_TYPE":0,"CLASSIFICATION_TYPE":"U","NORAD_CAT_ID":20511,"ELEMENT_SET_NO":999,"REV_AT_EPOCH":92718,"BSTAR":4.8692e-5,"MEAN_MOTION_DOT":4.12e-6,"MEAN_MOTION_DDOT":0},{"OBJECT_NAME":"HST","OBJECT_ID":"1990-037B","EPOCH":"2026-04-09T12:57:33.274944","MEAN_MOTION":15.2999949,"ECCENTRICITY":0.00023815,"INCLINATION":28.4726,"RA_OF_ASC_NODE":189.4707,"ARG_OF_PERICENTER":106.6293,"MEAN_ANOMALY":253.4564,"EPHEMERIS_TYPE":0,"CLASSIFICATION_TYPE":"U","NORAD_CAT_ID":20580,"ELEMENT_SET_NO":999,"REV_AT_EPOCH":77804,"BSTAR":0.00021262485,"MEAN_MOTION_DOT":6.586e-5,"MEAN_MOTION_DDOT":0},{"OBJECT_NAME":"SL-16 R/B","OBJECT_ID":"1990-046B","EPOCH":"2026-04-09T19:14:13.456896","MEAN_MOTION":14.15018959,"ECCENTRICITY":0.0016616,"INCLINATION":70.9995,"RA_OF_ASC_NODE":232.5683,"ARG_OF_PERICENTER":259.3252,"MEAN_ANOMALY":100.5999,"EPHEMERIS_TYPE":0,"CLASSIFICATION_TYPE":"U","NORAD_CAT_ID":20625,"ELEMENT_SET_NO":999,"REV_AT_EPOCH":85279,"BSTAR":-5.6745e-5,"MEAN_MOTION_DOT":-1.58e-6,"MEAN_MOTION_DDOT":0},{"OBJECT_NAME":"COSMOS 2084","OBJECT_ID":"1990-055A","EPOCH":"2026-04-09T12:52:26.513472","MEAN_MOTION":15.05846852,"ECCENTRICITY":0.0012095,"INCLINATION":62.79,"RA_OF_ASC_NODE":230.3525,"ARG_OF_PERICENTER":201.1599,"MEAN_ANOMALY":158.9002,"EPHEMERIS_TYPE":0,"CLASSIFICATION_TYPE":"U","NORAD_CAT_ID":20663,"ELEMENT_SET_NO":999,"REV_AT_EPOCH":94096,"BSTAR":0.00019483,"MEAN_MOTION_DOT":2.644e-5,"MEAN_MOTION_DDOT":0},{"OBJECT_NAME":"SL-6 R/B(2)","OBJECT_ID":"1990-055D","EPOCH":"2026-04-09T11:52:50.940192","MEAN_MOTION":15.03746235,"ECCENTRICITY":0.00298,"INCLINATION":62.7811,"RA_OF_ASC_NODE":149.0807,"ARG_OF_PERICENTER":353.7581,"MEAN_ANOMALY":6.3143,"EPHEMERIS_TYPE":0,"CLASSIFICATION_TYPE":"U","NORAD_CAT_ID":20666,"ELEMENT_SET_NO":999,"REV_AT_EPOCH":94282,"BSTAR":0.00012381,"MEAN_MOTION_DOT":1.519e-5,"MEAN_MOTION_DDOT":0},{"OBJECT_NAME":"SL-8 R/B","OBJECT_ID":"1990-078B","EPOCH":"2026-04-09T19:29:29.276160","MEAN_MOTION":14.89964813,"ECCENTRICITY":0.0356919,"INCLINATION":82.9045,"RA_OF_ASC_NODE":223.2986,"ARG_OF_PERICENTER":268.9111,"MEAN_ANOMALY":87.1206,"EPHEMERIS_TYPE":0,"CLASSIFICATION_TYPE":"U","NORAD_CAT_ID":20775,"ELEMENT_SET_NO":999,"REV_AT_EPOCH":81393,"BSTAR":0.00031934,"MEAN_MOTION_DOT":0.00010799,"MEAN_MOTION_DDOT":0}]
