SL-8 R/B                
1 19257U 88053B   26099.61641227  .00000224  00000+0  81069-4 0  9998
2 19257  74.0477  55.4543 0021210 230.4248 302.5131 14.38936644981045
COSMOS 1975             
1 19573U 88093A   26099.89081918  .00005263  00000+0  18809-3 0  9997
2 19573  82.5171  86.3453 0013153  66.0428 294.2187 15.28513720 24170
SL-14 R/B               
1 19574U 88093B   26099.84653965  .00000455  00000+0  49592-4 0  9992
2 19574  82.5345  12.8030 0019263 297.2923 127.6820 14.85694846  5640
SL-16 R/B               
1 19650U 88102B   26099.41915221  .00000253  00000+0  15190-3 0  9999
2 19650  70.9978  86.8361 0015701 317.1085  42.8812 14.16158654931249
INTERCOSMOS 24          
1 20261U 89080A   26099.46396947  .00000312  00000+0  89997-4 0  9991
2 20261  82.6016  84.3583 1187123 221.3367 129.1753 12.59594163670673
SL-14 R/B               
1 20262U 89080C   26099.52221251  .00000308  00000+0  82875-4 0  9997
2 20262  82.5936 153.4014 1230940 114.3114 259.1386 12.50522203664001
DELTA 1 R/B             
1 20323U 89089B   26099.52162360  .00000313  00000+0  85895-4 0  9990
2 20323  97.0682 302.0505 0069754  26.2659 334.2050 14.50689977900204
ARIANE 40 R/B           
1 20443U 90005H   26099.38939760  .00000260  00000+0  96038-4 0  9995
2 20443  98.3023 159.1264 0011369 111.0995 249.1410 14.39892322897226
DELTA 2 R/B(1)          
1 20453U 90008B   26099.00395284  .00056721  00000+0  57829-3 0  9992
2 20453  35.6040 335.2939 0076144 184.3872 175.6203 15.60285686930860
COSMOS 2058             
1 20465U 90010A   26099.82957961  .00003496  00000+0  20395-3 0  9993
2 20465  82.4724  16.7477 0008648 219.3951 140.6651 15.11633644946943
SL-14 R/B               
1 20466U 90010B   26099.77951014  .00000521  00000+0  60199-4 0  9994
2 20466  82.5017 238.1791 0019462 193.3119 166.7585 14.83601978933092
SL-14 R/B               
1 20511U 90018B   26099.75961645  .00000412  00000+0  48692-4 0  9995
2 20511  82.5244 194.0576 0015962 354.9917   5.1134 14.82177162927189
HST                     
1 20580U 90037B   26099.53996846  .00006586  00000+0  21262-3 0  9990
2 20580  28.4726 189.4707 0002381 106.6293 253.4564 15.29999490778045
SL-16 R/B               
1 20625U 90046B   26099.80154464 -.00000158  00000+0 -56745-4 0  9998
2 20625  70.9995 232.5683 0016616 259.3252 100.5999 14.15018959852790
COSMOS 2084             
1 20663U 90055A   26099.53641798  .00002644  00000+0  19483-3 0  9998
2 20663  62.7900 230.3525 0012095 201.1599 158.9002 15.05846852940964
SL-6 R/B(2)             
1 20666U 90055D   26099.49503403  .00001519  00000+0  12381-3 0  9996
2 20666  62.7811 149.0807 0029800 353.7581   6.3143 15.03746235942825
SL-8 R/B                
1 20775U 90078B   26099.81214440  .00010799  00000+0  31934-3 0  9993
2 20775  82.9045 223.2986 0356919 268.9111  87.1206 14.89964813813935
